{"type": "FeatureCollection", "features": [ {"type": "Feature", "properties": {"norad_id": 30846, "name": "FENGYUN 1C DEB", "group": "fengyun-1c-debris", "lat": 80.64122813574234, "lon": 89.34649367709503, "alt_km": 779.7140962042749, "timestamp": "2025-12-26T03:50:12.372268+00:00", "meta": {"OBJECT_NAME": "FENGYUN 1C DEB", "OBJECT_ID": "1999-025AWG", "EPOCH": "2025-12-23T06:18:07.356096", "MEAN_MOTION": 14.41591186, "ECCENTRICITY": 0.00539356, "INCLINATION": 99.3211, "RA_OF_ASC_NODE": 171.4269, "ARG_OF_PERICENTER": 305.526, "MEAN_ANOMALY": 235.7251, "EPHEMERIS_TYPE": 0, "CLASSIFICATION_TYPE": "U", "NORAD_CAT_ID": 30846, "ELEMENT_SET_NO": 999, "REV_AT_EPOCH": 98081, "BSTAR": 0.0007453984, "MEAN_MOTION_DOT": 2.415e-05, "MEAN_MOTION_DDOT": 0}, "tle": {"line1": "1 30846U 99025AWG 25357.26258514  .00002415  00000+0  74540-3 0  9995", "line2": "2 30846  99.3211 171.4269 0053935 305.5260 235.7251 14.41591186980815"}}, "geometry": {"type": "Point", "coordinates": [89.34649367709503, 80.64122813574234]}}, {"type": "Feature", "properties": {"norad_id": 30847, "name": "FENGYUN 1C DEB", "group": "fengyun-1c-debris", "lat": 57.25291836302467, "lon": 146.2492458993461, "alt_km": 859.1528605513195, "timestamp": "2025-12-26T03:50:12.372279+00:00", "meta": {"OBJECT_NAME": "FENGYUN 1C DEB", "OBJECT_ID": "1999-025AWH", "EPOCH": "2025-12-24T09:20:18.218400", "MEAN_MOTION": 14.17103703, "ECCENTRICITY": 0.00657959, "INCLINATION": 98.7321, "RA_OF_ASC_NODE": 158.3361, "ARG_OF_PERICENTER": 294.6027, "MEAN_ANOMALY": 94.5153, "EPHEMERIS_TYPE": 0, "CLASSIFICATION_TYPE": "U", "NORAD_CAT_ID": 30847, "ELEMENT_SET_NO": 999, "REV_AT_EPOCH": 96220, "BSTAR": 0.0019856738, "MEAN_MOTION_DOT": 4.041e-05, "MEAN_MOTION_DDOT": 0}, "tle": {"line1": "1 30847U 99025AWH 25358.38909975  .00004041  00000+0  19857-2 0  9990", "line2": "2 30847  98.7321 158.3361 0065795 294.6027  94.5153 14.17103703962206"}}, "geometry": {"type": "Point", "coordinates": [146.2492458993461, 57.25291836302467]}}, {"type": "Feature", "properties": {"norad_id": 30848, "name": "FENGYUN 1C DEB", "group": "fengyun-1c-debris", "lat": -75.96170665075513, "lon": -124.70528134948991, "alt_km": 753.7998427067314, "timestamp": "2025-12-26T03:50:12.372289+00:00", "meta": {"OBJECT_NAME": "FENGYUN 1C DEB", "OBJECT_ID": "1999-025AWJ", "EPOCH": "2025-12-24T12:01:43.212576", "MEAN_MOTION": 14.34555484, "ECCENTRICITY": 0.00435565, "INCLINATION": 99.0594, "RA_OF_ASC_NODE": 193.906, "ARG_OF_PERICENTER": 301.431, "MEAN_ANOMALY": 58.2618, "EPHEMERIS_TYPE": 0, "CLASSIFICATION_TYPE": "U", "NORAD_CAT_ID": 30848, "ELEMENT_SET_NO": 999, "REV_AT_EPOCH": 97475, "BSTAR": 0.0011922202, "MEAN_MOTION_DOT": 3.354e-05, "MEAN_MOTION_DDOT": 0}, "tle": {"line1": "1 30848U 99025AWJ 25358.50119459  .00003354  00000+0  11922-2 0  9996", "line2": "2 30848  99.0594 193.9060 0043556 301.4310  58.2618 14.34555484974759"}}, "geometry": {"type": "Point", "coordinates": [-124.70528134948991, -75.96170665075513]}}, {"type": "Feature", "properties": {"norad_id": 30849, "name": "FENGYUN 1C DEB", "group": "fengyun-1c-debris", "lat": -60.20641936573895, "lon": 76.58852197559187, "alt_km": 805.5896125700174, "timestamp": "2025-12-26T03:50:12.372299+00:00", "meta": {"OBJECT_NAME": "FENGYUN 1C DEB", "OBJECT_ID": "1999-025AWK", "EPOCH": "2025-12-25T02:52:27.713280", "MEAN_MOTION": 14.18922108, "ECCENTRICITY": 0.00480013, "INCLINATION": 99.0468, "RA_OF_ASC_NODE": 59.3708, "ARG_OF_PERICENTER": 329.8691, "MEAN_ANOMALY": 58.9514, "EPHEMERIS_TYPE": 0, "CLASSIFICATION_TYPE": "U", "NORAD_CAT_ID": 30849, "ELEMENT_SET_NO": 999, "REV_AT_EPOCH": 96548, "BSTAR": 0.0013885859, "MEAN_MOTION_DOT": 2.881e-05, "MEAN_MOTION_DDOT": 0}, "tle": {"line1": "1 30849U 99025AWK 25359.11976520  .00002881  00000+0  13886-2 0  9990", "line2": "2 30849  99.0468  59.3708 0048001 329.8691  58.9514 14.18922108965485"}}, "geometry": {"type": "Point", "coordinates": [76.58852197559187, -60.20641936573895]}}, {"type": "Feature", "properties": {"norad_id": 30850, "name": "FENGYUN 1C DEB", "group": "fengyun-1c-debris", "lat": 73.48607368971108, "lon": 74.77210728041979, "alt_km": 783.9862523152806, "timestamp": "2025-12-26T03:50:12.372309+00:00", "meta": {"OBJECT_NAME": "FENGYUN 1C DEB", "OBJECT_ID": "1999-025AWL", "EPOCH": "2025-12-25T13:55:24.832128", "MEAN_MOTION": 14.16378625, "ECCENTRICITY": 0.0109199, "INCLINATION": 98.3937, "RA_OF_ASC_NODE": 224.357, "ARG_OF_PERICENTER": 160.2013, "MEAN_ANOMALY": 230.7691, "EPHEMERIS_TYPE": 0, "CLASSIFICATION_TYPE": "U", "NORAD_CAT_ID": 30850, "ELEMENT_SET_NO": 999, "REV_AT_EPOCH": 95980, "BSTAR": 0.0019004, "MEAN_MOTION_DOT": 3.962e-05, "MEAN_MOTION_DDOT": 0}, "tle": {"line1": "1 30850U 99025AWL 25359.58014852  .00003962  00000+0  19004-2 0  9993", "line2": "2 30850  98.3937 224.3570 0109199 160.2013 230.7691 14.16378625959804"}}, "geometry": {"type": "Point", "coordinates": [74.77210728041979, 73.48607368971108]}}, {"type": "Feature", "properties": {"norad_id": 30852, "name": "FENGYUN 1C DEB", "group": "fengyun-1c-debris", "lat": 21.022202107099094, "lon": -159.0894016603296, "alt_km": 825.791142358993, "timestamp": "2025-12-26T03:50:12.372319+00:00", "meta": {"OBJECT_NAME": "FENGYUN 1C DEB", "OBJECT_ID": "1999-025AWN", "EPOCH": "2025-12-24T18:43:57.823968", "MEAN_MOTION": 14.10303864, "ECCENTRICITY": 0.00563032, "INCLINATION": 98.7331, "RA_OF_ASC_NODE": 16.1846, "ARG_OF_PERICENTER": 200.1468, "MEAN_ANOMALY": 159.748, "EPHEMERIS_TYPE": 0, "CLASSIFICATION_TYPE": "U", "NORAD_CAT_ID": 30852, "ELEMENT_SET_NO": 999, "REV_AT_EPOCH": 96552, "BSTAR": 0.00043887864, "MEAN_MOTION_DOT": 7.47e-06, "MEAN_MOTION_DDOT": 0}, "tle": {"line1": "1 30852U 99025AWN 25358.78053037  .00000747  00000+0  43888-3 0  9990", "line2": "2 30852  98.7331  16.1846 0056303 200.1468 159.7480 14.10303864965526"}}, "geometry": {"type": "Point", "coordinates": [-159.0894016603296, 21.022202107099094]}}, {"type": "Feature", "properties": {"norad_id": 30856, "name": "FENGYUN 1C DEB", "group": "fengyun-1c-debris", "lat": -71.19652731893089, "lon": -20.5388896650787, "alt_km": 708.0791837210127, "timestamp": "2025-12-26T03:50:12.372342+00:00", "meta": {"OBJECT_NAME": "FENGYUN 1C DEB", "OBJECT_ID": "1999-025AWS", "EPOCH": "2025-12-24T11:07:04.348128", "MEAN_MOTION": 14.46570184, "ECCENTRICITY": 0.00873355, "INCLINATION": 98.2024, "RA_OF_ASC_NODE": 182.8814, "ARG_OF_PERICENTER": 203.0018, "MEAN_ANOMALY": 218.7229, "EPHEMERIS_TYPE": 0, "CLASSIFICATION_TYPE": "U", "NORAD_CAT_ID": 30856, "ELEMENT_SET_NO": 999, "REV_AT_EPOCH": 96695, "BSTAR": 0.00535508, "MEAN_MOTION_DOT": 0.00020251, "MEAN_MOTION_DDOT": 0}, "tle": {"line1": "1 30856U 99025AWS 25358.46324477  .00020251  00000+0  53551-2 0  9997", "line2": "2 30856  98.2024 182.8814 0087335 203.0018 218.7229 14.46570184966957"}}, "geometry": {"type": "Point", "coordinates": [-20.5388896650787, -71.19652731893089]}}, {"type": "Feature", "properties": {"norad_id": 30857, "name": "FENGYUN 1C DEB", "group": "fengyun-1c-debris", "lat": -17.14803837045555, "lon": -6.381952612985519, "alt_km": 723.0203225381347, "timestamp": "2025-12-26T03:50:12.372352+00:00", "meta": {"OBJECT_NAME": "FENGYUN 1C DEB", "OBJECT_ID": "1999-025AWT", "EPOCH": "2025-12-23T04:47:46.082688", "MEAN_MOTION": 14.51842039, "ECCENTRICITY": 0.00407608, "INCLINATION": 98.9722, "RA_OF_ASC_NODE": 347.6644, "ARG_OF_PERICENTER": 263.7101, "MEAN_ANOMALY": 95.9448, "EPHEMERIS_TYPE": 0, "CLASSIFICATION_TYPE": "U", "NORAD_CAT_ID": 30857, "ELEMENT_SET_NO": 999, "REV_AT_EPOCH": 96875, "BSTAR": 0.0044417338, "MEAN_MOTION_DOT": 0.00018071, "MEAN_MOTION_DDOT": 0}, "tle": {"line1": "1 30857U 99025AWT 25357.19983892  .00018071  00000+0  44417-2 0  9997", "line2": "2 30857  98.9722 347.6644 0040760 263.7101  95.9448 14.51842039968754"}}, "geometry": {"type": "Point", "coordinates": [-6.381952612985519, -17.14803837045555]}}, {"type": "Feature", "properties": {"norad_id": 30858, "name": "FENGYUN 1C DEB", "group": "fengyun-1c-debris", "lat": 33.75176529303912, "lon": -116.39572209205059, "alt_km": 824.202031315117, "timestamp": "2025-12-26T03:50:12.372363+00:00", "meta": {"OBJECT_NAME": "FENGYUN 1C DEB", "OBJECT_ID": "1999-025AWU", "EPOCH": "2025-12-25T16:00:32.657760", "MEAN_MOTION": 14.17800572, "ECCENTRICITY": 0.00305, "INCLINATION": 98.7975, "RA_OF_ASC_NODE": 57.1765, "ARG_OF_PERICENTER": 73.876, "MEAN_ANOMALY": 77.501, "EPHEMERIS_TYPE": 0, "CLASSIFICATION_TYPE": "U", "NORAD_CAT_ID": 30858, "ELEMENT_SET_NO": 999, "REV_AT_EPOCH": 97163, "BSTAR": 0.00037833, "MEAN_MOTION_DOT": 7.31e-06, "MEAN_MOTION_DDOT": 0}, "tle": {"line1": "1 30858U 99025AWU 25359.66704465  .00000731  00000+0  37833-3 0  9998", "line2": "2 30858  98.7975  57.1765 0030500  73.8760  77.5010 14.17800572971632"}}, "geometry": {"type": "Point", "coordinates": [-116.39572209205059, 33.75176529303912]}}, {"type": "Feature", "properties": {"norad_id": 30859, "name": "FENGYUN 1C DEB", "group": "fengyun-1c-debris", "lat": -60.431745567755144, "lon": 67.11774076726375, "alt_km": 720.9778234221358, "timestamp": "2025-12-26T03:50:12.372373+00:00", "meta": {"OBJECT_NAME": "FENGYUN 1C DEB", "OBJECT_ID": "1999-025AWV", "EPOCH": "2025-12-25T19:50:05.737056", "MEAN_MOTION": 14.4931484, "ECCENTRICITY": 0.0030667, "INCLINATION": 98.9208, "RA_OF_ASC_NODE": 50.693, "ARG_OF_PERICENTER": 349.5258, "MEAN_ANOMALY": 10.5292, "EPHEMERIS_TYPE": 0, "CLASSIFICATION_TYPE": "U", "NORAD_CAT_ID": 30859, "ELEMENT_SET_NO": 999, "REV_AT_EPOCH": 97224, "BSTAR": 0.0026528, "MEAN_MOTION_DOT": 0.00010151, "MEAN_MOTION_DDOT": 0}, "tle": {"line1": "1 30859U 99025AWV 25359.82645529  .00010151  00000+0  26528-2 0  9997", "line2": "2 30859  98.9208  50.6930 0030667 349.5258  10.5292 14.49314840972245"}}, "geometry": {"type": "Point", "coordinates": [67.11774076726375, -60.431745567755144]}}]}